start=new Date('2022-11-17T00:00:00.000Z').valueOf();
sats=[{"REF_FRAME":"TEME","TLE_LINE1":"1 48320U 21036AW  22320.74496809 -.00000408  00000-0 -85052-5 0  9994","MEAN_MOTION_DDOT":"0.0000000000000","MEAN_MOTION":"15.06398347","PERIAPSIS":"546.270","OBJECT_ID":"2021-036AW","COUNTRY_CODE":"US","NORAD_CAT_ID":"48320","RCS_SIZE":"LARGE","MEAN_ELEMENT_THEORY":"SGP4","APOAPSIS":"548.167","REV_AT_EPOCH":"8581","SEMIMAJOR_AXIS":"6925.354","ELEMENT_SET_NO":"999","ARG_OF_PERICENTER":"83.9377","EPHEMERIS_TYPE":"0","CENTER_NAME":"EARTH","SITE":"AFETR","MEAN_MOTION_DOT":"-0.00000408","RA_OF_ASC_NODE":"128.7905","EPOCH":"2022-11-16T17:52:45.242976","DECAY_DATE":null,"PERIOD":"95.592","OBJECT_TYPE":"PAYLOAD","TIME_SYSTEM":"UTC","CLASSIFICATION_TYPE":"U","ECCENTRICITY":"0.00013700","INCLINATION":"53.0536","TLE_LINE2":"2 48320  53.0536 128.7905 0001370  83.9377 276.1768 15.06398347 85816","LAUNCH_DATE":"2021-04-29","GP_ID":"218013829","MEAN_ANOMALY":"276.1768","OBJECT_NAME":"STARLINK-2029","BSTAR":"-0.00000850520000","FILE":"3660705"},{"TIME_SYSTEM":"UTC","CLASSIFICATION_TYPE":"U","PERIOD":"95.592","OBJECT_TYPE":"PAYLOAD","DECAY_DATE":null,"FILE":"3660705","BSTAR":"0.00003107700000","MEAN_ANOMALY":"291.3620","OBJECT_NAME":"STARLINK-2457","GP_ID":"218014077","LAUNCH_DATE":"2021-04-29","TLE_LINE2":"2 48321  53.0543 128.8068 0001413  68.7520 291.3620 15.06398293 85811","INCLINATION":"53.0543","ECCENTRICITY":"0.00014130","MEAN_ELEMENT_THEORY":"SGP4","RCS_SIZE":"LARGE","OBJECT_ID":"2021-036AX","COUNTRY_CODE":"US","NORAD_CAT_ID":"48321","PERIAPSIS":"546.240","MEAN_MOTION":"15.06398293","REF_FRAME":"TEME","MEAN_MOTION_DDOT":"0.0000000000000","TLE_LINE1":"1 48321U 21036AX  22320.74127822  .00000181  00000-0  31077-4 0  9994","EPOCH":"2022-11-16T17:47:26.438208","RA_OF_ASC_NODE":"128.8068","CENTER_NAME":"EARTH","SITE":"AFETR","MEAN_MOTION_DOT":"0.00000181","ELEMENT_SET_NO":"999","ARG_OF_PERICENTER":"68.7520","EPHEMERIS_TYPE":"0","SEMIMAJOR_AXIS":"6925.354","APOAPSIS":"548.197","REV_AT_EPOCH":"8581"},{"TIME_SYSTEM":"UTC","CLASSIFICATION_TYPE":"U","DECAY_DATE":null,"PERIOD":"95.593","OBJECT_TYPE":"PAYLOAD","MEAN_ANOMALY":"272.1483","OBJECT_NAME":"STARLINK-2477","FILE":"3660705","BSTAR":"0.00002182200000","ECCENTRICITY":"0.00011340","GP_ID":"218014830","INCLINATION":"53.0541","TLE_LINE2":"2 48322  53.0541 128.8229 0001134  87.9636 272.1483 15.06380511 85818","LAUNCH_DATE":"2021-04-29","OBJECT_ID":"2021-036AY","COUNTRY_CODE":"US","NORAD_CAT_ID":"48322","MEAN_ELEMENT_THEORY":"SGP4","RCS_SIZE":"LARGE","MEAN_MOTION":"15.06380511","REF_FRAME":"TEME","MEAN_MOTION_DDOT":"0.0000000000000","TLE_LINE1":"1 48322U 21036AY  22320.73759979  .00000044  00000-0  21822-4 0  9993","PERIAPSIS":"546.488","RA_OF_ASC_NODE":"128.8229","SITE":"AFETR","CENTER_NAME":"EARTH","MEAN_MOTION_DOT":"0.00000044","EPOCH":"2022-11-16T17:42:08.621856","APOAPSIS":"548.059","REV_AT_EPOCH":"8581","ARG_OF_PERICENTER":"87.9636","ELEMENT_SET_NO":"999","EPHEMERIS_TYPE":"0","SEMIMAJOR_AXIS":"6925.408"},{"PERIAPSIS":"546.184","REF_FRAME":"TEME","MEAN_MOTION_DDOT":"0.0000000000000","TLE_LINE1":"1 48323U 21036AZ  22320.73392907 -.00000539  00000-0 -17276-4 0  9997","MEAN_MOTION":"15.06389559","RCS_SIZE":"LARGE","MEAN_ELEMENT_THEORY":"SGP4","COUNTRY_CODE":"US","NORAD_CAT_ID":"48323","OBJECT_ID":"2021-036AZ","SEMIMAJOR_AXIS":"6925.381","ARG_OF_PERICENTER":"85.5690","ELEMENT_SET_NO":"999","EPHEMERIS_TYPE":"0","APOAPSIS":"548.307","REV_AT_EPOCH":"8581","EPOCH":"2022-11-16T17:36:51.471648","SITE":"AFETR","CENTER_NAME":"EARTH","MEAN_MOTION_DOT":"-0.00000539","RA_OF_ASC_NODE":"128.8316","PERIOD":"95.593","OBJECT_TYPE":"PAYLOAD","DECAY_DATE":null,"TIME_SYSTEM":"UTC","CLASSIFICATION_TYPE":"U","TLE_LINE2":"2 48323  53.0546 128.8316 0001533  85.5690 274.5475 15.06389559 85816","LAUNCH_DATE":"2021-04-29","INCLINATION":"53.0546","GP_ID":"218015076","ECCENTRICITY":"0.00015330","BSTAR":"-0.00001727600000","FILE":"3660705","MEAN_ANOMALY":"274.5475","OBJECT_NAME":"STARLINK-2515"},{"RA_OF_ASC_NODE":"128.5434","SITE":"AFETR","CENTER_NAME":"EARTH","MEAN_MOTION_DOT":"0.00000226","EPOCH":"2022-11-16T19:05:42.977184","APOAPSIS":"548.258","REV_AT_EPOCH":"8581","ELEMENT_SET_NO":"999","ARG_OF_PERICENTER":"139.8184","EPHEMERIS_TYPE":"0","SEMIMAJOR_AXIS":"6925.381","NORAD_CAT_ID":"48324","COUNTRY_CODE":"US","OBJECT_ID":"2021-036BA","MEAN_ELEMENT_THEORY":"SGP4","RCS_SIZE":"LARGE","MEAN_MOTION":"15.06389393","REF_FRAME":"TEME","TLE_LINE1":"1 48324U 21036BA  22320.79563631  .00000226  00000-0  34050-4 0  9998","MEAN_MOTION_DDOT":"0.0000000000000","PERIAPSIS":"546.234","MEAN_ANOMALY":"220.2913","OBJECT_NAME":"STARLINK-2527","FILE":"3660705","BSTAR":"0.00003405000000","ECCENTRICITY":"0.00014610","GP_ID":"218014330","TLE_LINE2":"2 48324  53.0556 128.5434 0001461 139.8184 220.2913 15.06389393 85818","INCLINATION":"53.0556","LAUNCH_DATE":"2021-04-29","TIME_SYSTEM":"UTC","CLASSIFICATION_TYPE":"U","DECAY_DATE":null,"PERIOD":"95.593","OBJECT_TYPE":"PAYLOAD"},{"CLASSIFICATION_TYPE":"U","TIME_SYSTEM":"UTC","OBJECT_TYPE":"PAYLOAD","PERIOD":"95.593","DECAY_DATE":null,"BSTAR":"0.00001309300000","FILE":"3660705","OBJECT_NAME":"STARLINK-2495","MEAN_ANOMALY":"273.9806","INCLINATION":"53.0535","TLE_LINE2":"2 48325  53.0535 128.5770 0001370  86.1340 273.9806 15.06391167 85825","LAUNCH_DATE":"2021-04-29","GP_ID":"218014578","ECCENTRICITY":"0.00013700","RCS_SIZE":"LARGE","MEAN_ELEMENT_THEORY":"SGP4","COUNTRY_CODE":"US","OBJECT_ID":"2021-036BB","NORAD_CAT_ID":"48325","PERIAPSIS":"546.292","TLE_LINE1":"1 48325U 21036BB  22320.79289220 -.00000086  00000-0  13093-4 0  9997","MEAN_MOTION_DDOT":"0.0000000000000","REF_FRAME":"TEME","MEAN_MOTION":"15.06391167","EPOCH":"2022-11-16T19:01:45.886080","MEAN_MOTION_DOT":"-0.00000086","SITE":"AFETR","CENTER_NAME":"EARTH","RA_OF_ASC_NODE":"128.5770","SEMIMAJOR_AXIS":"6925.376","EPHEMERIS_TYPE":"0","ELEMENT_SET_NO":"999","ARG_OF_PERICENTER":"86.1340","REV_AT_EPOCH":"8582","APOAPSIS":"548.189"},{"ECCENTRICITY":"0.00013600","GP_ID":"218015331","TLE_LINE2":"2 48326  53.0538 128.5933 0001360  91.4046 268.7099 15.06393178 85821","LAUNCH_DATE":"2021-04-29","INCLINATION":"53.0538","MEAN_ANOMALY":"268.7099","OBJECT_NAME":"STARLINK-2498","FILE":"3660705","BSTAR":"0.00011566000000","DECAY_DATE":null,"PERIOD":"95.593","OBJECT_TYPE":"PAYLOAD","TIME_SYSTEM":"UTC","CLASSIFICATION_TYPE":"U","APOAPSIS":"548.176","REV_AT_EPOCH":"8582","ARG_OF_PERICENTER":"91.4046","ELEMENT_SET_NO":"999","EPHEMERIS_TYPE":"0","SEMIMAJOR_AXIS":"6925.369","RA_OF_ASC_NODE":"128.5933","CENTER_NAME":"EARTH","SITE":"AFETR","MEAN_MOTION_DOT":"0.00001441","EPOCH":"2022-11-16T18:56:27.476160","MEAN_MOTION":"15.06393178","REF_FRAME":"TEME","MEAN_MOTION_DDOT":"0.0000000000000","TLE_LINE1":"1 48326U 21036BC  22320.78920690  .00001441  00000-0  11566-3 0  9997","PERIAPSIS":"546.293","OBJECT_ID":"2021-036BC","COUNTRY_CODE":"US","NORAD_CAT_ID":"48326","MEAN_ELEMENT_THEORY":"SGP4","RCS_SIZE":"MEDIUM"},{"NORAD_CAT_ID":"48327","COUNTRY_CODE":"US","OBJECT_ID":"2021-036BD","RCS_SIZE":"LARGE","MEAN_ELEMENT_THEORY":"SGP4","REF_FRAME":"TEME","TLE_LINE1":"1 48327U 21036BD  22320.78552086  .00001522  00000-0  12101-3 0  9994","MEAN_MOTION_DDOT":"0.0000000000000","MEAN_MOTION":"15.06401439","PERIAPSIS":"546.340","SITE":"AFETR","CENTER_NAME":"EARTH","MEAN_MOTION_DOT":"0.00001522","RA_OF_ASC_NODE":"128.6103","EPOCH":"2022-11-16T18:51:09.002304","APOAPSIS":"548.078","REV_AT_EPOCH":"8582","SEMIMAJOR_AXIS":"6925.344","ARG_OF_PERICENTER":"80.6029","ELEMENT_SET_NO":"999","EPHEMERIS_TYPE":"0","TIME_SYSTEM":"UTC","CLASSIFICATION_TYPE":"U","DECAY_DATE":null,"PERIOD":"95.592","OBJECT_TYPE":"PAYLOAD","MEAN_ANOMALY":"279.5102","OBJECT_NAME":"STARLINK-2502","BSTAR":"0.00012101000000","FILE":"3660705","ECCENTRICITY":"0.00012550","TLE_LINE2":"2 48327  53.0542 128.6103 0001255  80.6029 279.5102 15.06401439 85826","LAUNCH_DATE":"2021-04-29","INCLINATION":"53.0542","GP_ID":"218015577"},{"EPOCH":"2022-11-16T18:44:28.823424","RA_OF_ASC_NODE":"128.6177","CENTER_NAME":"EARTH","SITE":"AFETR","MEAN_MOTION_DOT":"-0.00000630","ARG_OF_PERICENTER":"82.9447","ELEMENT_SET_NO":"999","EPHEMERIS_TYPE":"0","SEMIMAJOR_AXIS":"6925.385","APOAPSIS":"548.263","REV_AT_EPOCH":"8582","MEAN_ELEMENT_THEORY":"SGP4","RCS_SIZE":"LARGE","COUNTRY_CODE":"US","OBJECT_ID":"2021-036BE","NORAD_CAT_ID":"48328","PERIAPSIS":"546.236","MEAN_MOTION":"15.06388246","REF_FRAME":"TEME","MEAN_MOTION_DDOT":"0.0000000000000","TLE_LINE1":"1 48328U 21036BE  22320.78088916 -.00000630  00000-0 -23407-4 0  9994","FILE":"3660705","BSTAR":"-0.00002340700000","MEAN_ANOMALY":"277.1708","OBJECT_NAME":"STARLINK-2504","GP_ID":"218013830","INCLINATION":"53.0530","TLE_LINE2":"2 48328  53.0530 128.6177 0001464  82.9447 277.1708 15.06388246 85822","LAUNCH_DATE":"2021-04-29","ECCENTRICITY":"0.00014640","TIME_SYSTEM":"UTC","CLASSIFICATION_TYPE":"U","PERIOD":"95.593","OBJECT_TYPE":"PAYLOAD","DECAY_DATE":null},{"ECCENTRICITY":"0.00021450","GP_ID":"218014078","TLE_LINE2":"2 48329  53.0547 128.6378 0002145  49.9700 310.1477 15.06392963 85828","LAUNCH_DATE":"2021-04-29","INCLINATION":"53.0547","OBJECT_NAME":"STARLINK-2510","MEAN_ANOMALY":"310.1477","FILE":"3660705","BSTAR":"-0.00013707000000","DECAY_DATE":null,"OBJECT_TYPE":"PAYLOAD","PERIOD":"95.593","CLASSIFICATION_TYPE":"U","TIME_SYSTEM":"UTC","REV_AT_EPOCH":"8582","APOAPSIS":"548.721","EPHEMERIS_TYPE":"0","ARG_OF_PERICENTER":"49.9700","ELEMENT_SET_NO":"999","SEMIMAJOR_AXIS":"6925.370","RA_OF_ASC_NODE":"128.6378","MEAN_MOTION_DOT":"-0.00002322","CENTER_NAME":"EARTH","SITE":"AFETR","EPOCH":"2022-11-16T18:40:32.882304","MEAN_MOTION":"15.06392963","TLE_LINE1":"1 48329U 21036BF  22320.77815836 -.00002322  00000-0 -13707-3 0  9994","MEAN_MOTION_DDOT":"0.0000000000000","REF_FRAME":"TEME","PERIAPSIS":"545.750","COUNTRY_CODE":"US","OBJECT_ID":"2021-036BF","NORAD_CAT_ID":"48329","MEAN_ELEMENT_THEORY":"SGP4","RCS_SIZE":"LARGE"}];
